KUIPER-00071            
1 64818U 25151C   26022.33032488 -.00015934  00000+0 -20675-2 0  9999
2 64818  51.8999 148.0775 0007289  84.8461 275.3334 14.79880252 28406
KUIPER-00072            
1 64819U 25151D   26022.31018125  .00007843  00000+0  10140-2 0  9994
2 64819  51.8967 128.0814 0000520  78.3453 281.7569 14.81674237 28682
KUIPER-00073            
1 64820U 25151E   26022.33335648  .00011350  00000+0  15125-2 0  9996
2 64820  51.8995 148.0610 0003882 126.4079  68.7181 14.80008734  5336
KUIPER-00074            
1 64821U 25151F   26022.31022531  .00006400  00000+0  86527-3 0  9994
2 64821  51.9001 135.6805 0012973 117.1364 243.0923 14.80019142 28577
KUIPER-00075            
1 64822U 25151G   26022.20903223  .00053935  00000+0  13339-2 0  9994
2 64822  51.8734  87.7441 0003742 100.8081 259.3329 15.39925912 29232
KUIPER-00076            
1 64823U 25151H   26021.63228377  .00012067  00000+0  16046-2 0  9990
2 64823  51.8993 141.1727 0002144 143.0744 217.0366 14.80049701 28444
KUIPER-00077            
1 64824U 25151J   26021.62683699  .00012194  00000+0  16241-2 0  9990
2 64824  51.9008 146.2042 0006183  86.4284 273.7386 14.79966458 28373
KUIPER-00078            
1 64825U 25151K   26021.59577319  .00012804  00000+0  17010-2 0  9991
2 64825  51.9005 143.8338 0002816 152.2801 207.8312 14.80039633 28407
